FLOCK 3P-9              
1 41973U 17008AB  17236.91542618  .00005770  00000-0  24998-3 0  9999
2 41973  97.4900 298.0428 0007037 320.3613  39.7109 15.22766622 28911
FLOCK 3P-10             
1 41974U 17008AC  17237.43213011  .00002609  00000-0  11458-3 0  9995
2 41974  97.4912 298.5819 0006107 317.9535  42.1333 15.22817348 28870
FLOCK 3P-11             
1 41975U 17008AD  17236.91862243  .00003558  00000-0  15526-3 0  9999
2 41975  97.4900 298.0387 0007145 321.3543  38.7181 15.22792693 28804
FLOCK 3P-60             
1 41976U 17008AE  17237.48599360  .00001687  00000-0  75147-4 0  9997
2 41976  97.4903 298.6632 0006818 321.4619  38.6130 15.22840154 28256
FLOCK 3P-58             
1 41977U 17008AF  17237.43693805  .00003012  00000-0  13209-3 0  9996
2 41977  97.4899 298.5705 0006861 320.1615  39.9117 15.22744982 29073
FLOCK 3P-57             
1 41978U 17008AG  17237.43223850  .00004565  00000-0  19819-3 0  9993
2 41978  97.4899 298.5777 0006929 318.6323  41.4388 15.22809219 28911
FLOCK 3P-75             
1 41979U 17008AH  17237.43090824  .00002775  00000-0  12159-3 0  9998
2 41979  97.4922 298.6391 0007223 322.0321  38.0405 15.22836833 29068
FLOCK 3P-70             
1 41980U 17008AJ  17236.90507805  .00004390  00000-0  19055-3 0  9990
2 41980  97.4922 298.1169 0007146 323.5942  36.4808 15.22839772 28835
FLOCK 3P-73             
1 41981U 17008AK  17237.17391070  .00006265  00000-0  27109-3 0  9998
2 41981  97.4922 298.3716 0007383 323.3643  36.7088 15.22773283 29002
FLOCK 3P-88             
1 41982U 17008AL  17237.42742908  .00004119  00000-0  17892-3 0  9991
2 41982  97.4918 298.6388 0007231 322.0947  37.9780 15.22853275 28013
FLOCK 3P-85             
1 41983U 17008AM  17237.48076694  .00003716  00000-0  16173-3 0  9993
2 41983  97.4920 298.7251 0007240 326.3242  33.7533 15.22844796 28920
FLOCK 3P-79             
1 41984U 17008AN  17237.15321381  .00004860  00000-0  21062-3 0  9998
2 41984  97.4921 298.3957 0006903 327.8622  32.2192 15.22837944 28870
FLOCK 3P-86             
1 41985U 17008AP  17237.48223905  .00003732  00000-0  16244-3 0  9991
2 41985  97.4920 298.7190 0006849 325.5984  34.4808 15.22842711 28919
FLOCK 3P-36             
1 41986U 17008AQ  17237.15690294  .00001518  00000-0  67875-4 0  9992
2 41986  97.4909 298.3391 0006475 323.7266  36.3530 15.22851080 28354
FLOCK 3P-30             
1 41987U 17008AR  17237.54178611  .00001509  00000-0  67508-4 0  9993
2 41987  97.4910 298.7461 0006509 324.5796  35.5007 15.22856151 28886
FLOCK 3P-34             
1 41988U 17008AS  17237.15943083  .00001819  00000-0  80723-4 0  9992
2 41988  97.4900 298.3280 0006553 321.2218  38.8548 15.22853886 28353
FLOCK 3P-35             
1 41989U 17008AT  17237.16180733  .00003187  00000-0  13913-3 0  9995
2 41989  97.4899 298.3244 0006686 320.8231  39.2521 15.22857756 28354
FLOCK 3P-33             
1 41990U 17008AU  17237.41942744  .00003632  00000-0  15822-3 0  9999
2 41990  97.4901 298.5968 0006365 322.0300  38.0487 15.22839446 28398
LEMUR-2-SATCHMO         
1 41991U 17008AV  17236.85942987  .00002465  00000-0  10990-3 0  9990
2 41991  97.4899 297.9628 0006791 326.8377  33.2433 15.22349615 28303
LEMUR-2-MIA-GRACE       
1 41992U 17008AW  17237.10302137  .00002717  00000-0  11994-3 0  9992
2 41992  97.4901 298.2551 0006692 326.0801  34.0007 15.22605718 28340
LEMUR-2-SMITA-SHARAD    
1 41993U 17008AX  17237.17754427  .00002282  00000-0  10158-3 0  9991
2 41993  97.4898 298.3054 0006650 325.7235  34.3571 15.22488822 28351
LEMUR-2-SPIRE-MINIONS   
1 41994U 17008AY  17236.91109201  .00002886  00000-0  12736-3 0  9991
2 41994  97.4899 298.0476 0006756 326.0674  34.0129 15.22562984 28310
LEMUR-2-RDEATON         
1 41995U 17008AZ  17236.91116158  .00002377  00000-0  10555-3 0  9993
2 41995  97.4900 298.0501 0008056 339.9187  20.1731 15.22517205 28995
LEMUR-2-NOGUECORREIG    
1 41996U 17008BA  17237.16377176  .00002615  00000-0  11539-3 0  9999
2 41996  97.4901 298.3278 0008011 339.3994  20.6918 15.22645991 28257
LEMUR-2-JOBANPUTRA      
1 41997U 17008BB  17237.15224098  .00001635  00000-0  73026-4 0  9994
2 41997  97.4905 298.3434 0007996 339.8737  20.2183 15.22773201 28343
LEMUR-2-TACHIKOMA       
1 41998U 17008BC  17236.91141210  .00002072  00000-0  92579-4 0  9992
2 41998  97.4899 298.0488 0008079 340.8258  19.2673 15.22458159 28237
BGUSAT                  
1 41999U 17008BD  17237.21036101  .00003077  00000-0  13428-3 0  9990
2 41999  97.4906 298.4278 0007840 341.1489  18.9456 15.22885144 28359
DIDO-2                  
1 42000U 17008BE  17236.91666559  .00001522  00000-0  69019-4 0  9997
2 42000  97.4901 298.0402 0008141 341.3784  18.7153 15.22364065 28310
FLOCK 3P-49             
1 42001U 17008BF  17237.14275748  .00002051  00000-0  90677-4 0  9992
2 42001  97.4904 298.3547 0007523 342.3073  17.7900 15.22834900 28872
FLOCK 3P-67             
1 42002U 17008BG  17237.41152873  .00005686  00000-0  24579-3 0  9990
2 42002  97.4900 298.6055 0007434 339.3727  20.7208 15.22848356 29077
FLOCK 3P-68             
1 42003U 17008BH  17237.21599078  .00001820  00000-0  80878-4 0  9992
2 42003  97.4900 298.4041 0007544 339.8925  20.2014 15.22813983 28682
FLOCK 3P-41             
1 42004U 17008BJ  17237.53299037  .00001596  00000-0  71195-4 0  9992
2 42004  97.4903 298.7410 0007362 342.1375  17.9601 15.22851821 28928
FLOCK 3P-45             
1 42005U 17008BK  17237.21012080  .00003509  00000-0  15295-3 0  9993
2 42005  97.4901 298.4136 0007380 342.1267  17.9709 15.22834012 29034
FLOCK 3P-48             
1 42006U 17008BL  17237.47058687  .00002687  00000-0  11781-3 0  9997
2 42006  97.4904 298.6820 0007278 342.8877  17.2113 15.22851868 28860
FLOCK 3P-43             
1 42007U 17008BM  17237.13989399  .00003827  00000-0  16647-3 0  9997
2 42007  97.4899 298.3505 0007186 344.0307  16.0702 15.22845130 29026
FLOCK 3P-42             
1 42008U 17008BN  17237.46760574  .00001802  00000-0  79974-4 0  9990
2 42008  97.4903 298.6755 0007281 342.2651  17.8330 15.22857372 29006
FLOCK 3P-61             
1 42009U 17008BP  17237.20329237  .00004371  00000-0  18975-3 0  9997
2 42009  97.4900 298.4184 0007270 346.4779  13.6262 15.22832486 29011
FLOCK 3P-40             
1 42010U 17008BQ  17237.45992519  .00004559  00000-0  19771-3 0  9998
2 42010  97.4894 298.6762 0007137 346.1496  13.9543 15.22848009 28319
FLOCK 3P-16             
1 42011U 17008BR  17237.18447863  .00001933  00000-0  85395-4 0  9995
2 42011  97.4895 298.4336 0006895 347.8589  12.2480 15.22934652 28218
FLOCK 3P-14             
1 42012U 17008BS  17237.18972358  .00001666  00000-0  74186-4 0  9997
2 42012  97.4904 298.4334 0007047 349.4727  10.6361 15.22867167 28834
FLOCK 3P-53             
1 42013U 17008BT  17237.45669621  .00002327  00000-0  10237-3 0  9995
2 42013  97.4892 298.6728 0006878 347.4938  12.6127 15.22864029 28873
FLOCK 3P-54             
1 42014U 17008BU  17237.45355339  .00004372  00000-0  18962-3 0  9999
2 42014  97.4894 298.6857 0006828 348.2616  11.8460 15.22870318 29045
PEASSS                  
1 42015U 17008BV  17236.90691478  .00001994  00000-0  87812-4 0  9994
2 42015  97.4888 298.1786 0006231 354.5213   5.5954 15.23009612 28809
AL-FARABI 1             
1 42016U 17008BW  17237.41966269  .00002270  00000-0  99018-4 0  9994
2 42016  97.4891 298.7262 0006070 353.5432   6.5725 15.23185040 29002
NAYIF-1 (EO-88)         
1 42017U 17008BX  17237.41783010  .00002296  00000-0  10007-3 0  9994
2 42017  97.4890 298.7274 0006055 353.9515   6.1647 15.23201303 29026
FLOCK 3P-23             
1 42018U 17008BY  17236.85981182  .00005785  00000-0  25031-3 0  9991
2 42018  97.4892 297.9422 0007399 318.6273  41.4403 15.22804624 27750
FLOCK 3P-76             
1 42019U 17008BZ  17237.15988597  .00003045  00000-0  13310-3 0  9997
2 42019  97.4924 298.3935 0007277 325.1128  34.9630 15.22844879 28866
FLOCK 3P-69             
1 42020U 17008CA  17237.15801679  .00003720  00000-0  16195-3 0  9998
2 42020  97.4923 298.3950 0007093 323.9032  36.1725 15.22839488 27756
FLOCK 3P-84             
1 42021U 17008CB  17236.90389933  .00004107  00000-0  17844-3 0  9997
2 42021  97.4919 298.1116 0007466 324.3056  35.7681 15.22840835 28833
FLOCK 3P-59             
1 42022U 17008CC  17236.90420114  .00003882  00000-0  16921-3 0  9999
2 42022  97.4900 298.0576 0006943 324.7043  35.3733 15.22772429 27850
FLOCK 3P-32             
1 42023U 17008CD  17236.90717498  .00004089  00000-0  17807-3 0  9998
2 42023  97.4901 298.0560 0006789 321.0168  39.0578 15.22773979 28996
FLOCK 3P-71             
1 42024U 17008CE  17237.44080934  .00004231  00000-0  18471-3 0  9994
2 42024  97.4925 298.6324 0007211 321.8318  38.2407 15.22660542 27940
FLOCK 3P-77             
1 42025U 17008CF  17236.89869322  .00001751  00000-0  77820-4 0  9997
2 42025  97.4923 298.1222 0007195 326.8334  33.2450 15.22848336 28836
FLOCK 3P-80             
1 42026U 17008CG  17237.40878195  .00002321  00000-0  10215-3 0  9992
2 42026  97.4920 298.6639 0006784 325.9127  34.1672 15.22864040 27053
FLOCK 3P-66             
1 42027U 17008CH  17237.21555123  .00004701  00000-0  20391-3 0  9995
2 42027  97.4902 298.4115 0007518 339.2486  20.8445 15.22822024 28993
FLOCK 3P-65             
1 42028U 17008CJ  17237.47624187  .00004061  00000-0  17655-3 0  9999
2 42028  97.4900 298.6757 0007398 338.7762  21.3167 15.22831676 28937
FLOCK 3P-50             
1 42029U 17008CK  17237.47352429  .00004360  00000-0  18932-3 0  9998
2 42029  97.4903 298.6840 0007309 341.9437  18.1539 15.22831654 28259
FLOCK 3P-52             
1 42030U 17008CL  17236.94929402  .00003788  00000-0  16484-3 0  9995
2 42030  97.4902 298.1499 0007397 342.3668  17.7311 15.22838459 28942
FLOCK 3P-46             
1 42031U 17008CM  17236.94418364  .00003504  00000-0  15265-3 0  9998
2 42031  97.4901 298.1521 0007352 343.7890  16.3110 15.22856801 29002
